STARLINK-2111_new
1 17390C 21005AT  21326.13522426  .00006421  00000-0  43023-3 0  3262
2 17390  53.0542 263.1252 0001943  72.4469 256.1494 15.06389548    15
STARLINK-2111_old
1 27390C 21005AT  21325.16040051 -.00019462  00000-0 -13040-2 0  3258
2 27390  53.0547 267.5010 0001937  71.3665   7.7863 15.06418453    17
